[{"OBJECT_NAME":"STARLINK-30589","OBJECT_ID":"2023-161G","EPOCH":"2026-03-09T11:14:10.110048","MEAN_MOTION":15.3019253,"ECCENTRICITY":0.0001235,"INCLINATION":53.1598,"RA_OF_ASC_NODE":166.6492,"ARG_OF_PERICENTER":109.2061,"MEAN_ANOMALY":250.9073,"EPHEMERIS_TYPE":0,"CLASSIFICATION_TYPE":"U","NORAD_CAT_ID":58103,"ELEMENT_SET_NO":999,"REV_AT_EPOCH":13438,"BSTAR":-4.6308949e-5,"MEAN_MOTION_DOT":-1.73e-5,"MEAN_MOTION_DDOT":0},{"OBJECT_NAME":"COSMOS 2535 DEB","OBJECT_ID":"2019-039M","EPOCH":"2026-03-08T03:25:35.903424","MEAN_MOTION":15.28322551,"ECCENTRICITY":0.0014917,"INCLINATION":97.5619,"RA_OF_ASC_NODE":139.2722,"ARG_OF_PERICENTER":329.0964,"MEAN_ANOMALY":30.9396,"EPHEMERIS_TYPE":0,"CLASSIFICATION_TYPE":"U","NORAD_CAT_ID":44641,"ELEMENT_SET_NO":999,"REV_AT_EPOCH":35167,"BSTAR":0.0011539757,"MEAN_MOTION_DOT":0.0003196,"MEAN_MOTION_DDOT":0}]
